GLOBALSTAR M067         
1 32263U 07048A   24347.92206086 -.00000096  00000+0  12988-4 0  9995
2 32263  51.9716 220.9565 0000933  17.1372 100.1114 12.40662270786360
GLOBALSTAR M070         
1 32264U 07048B   24347.97119341 -.00000076  00000+0  15506-3 0  9994
2 32264  51.9768 335.7889 0000510  57.9442 320.2719 12.62307775790151
GLOBALSTAR M066         
1 32265U 07048C   24347.92384727 -.00000048  00000+0  36220-3 0  9997
2 32265  51.9648 207.6177 0001578  68.6090  60.5998 12.42168429792232
GLOBALSTAR M068         
1 32266U 07048D   24347.68508198 -.00000061  00000+0  23961-3 0  9994
2 32266  51.9859 150.7710 0002104  92.8369  14.5734 12.62811361793995
GLOBALSTAR M074         
1 37189U 10054B   24348.11348344 -.00000090  00000+0  76856-4 0  9992
2 37189  52.0034 345.5751 0000364  45.7701 341.8415 12.62260137653630
GLOBALSTAR M077         
1 37191U 10054D   24347.97163834 -.00000089  00000+0  79726-4 0  9994
2 37191  52.0084 302.9669 0000540  51.5247 349.5091 12.62268079654379
